ORBCOMM FM33            
1 25983U 99065D   24172.53022390  .00001061  00000+0  39524-3 0  9999
2 25983  45.0297 275.6625 0006694  37.3533 322.7780 14.37858134283970
ORBCOMM FM36            
1 25984U 99065E   24172.56039488  .00001296  00000+0  49270-3 0  9998
2 25984  45.0416   1.7185 0003217 267.2826  92.7654 14.35765143282406
ORBCOMM FM35            
1 25985U 99065F   24172.26710400  .00000924  00000+0  36862-3 0  9996
2 25985  45.0417   5.8911 0002812  33.0316 327.0707 14.35294786282754
ORBCOMM FM34            
1 25986U 99065G   24172.51681930  .00000990  00000+0  39149-3 0  9994
2 25986  45.0412   5.2560 0003049 327.1672  32.8985 14.35268153282904
ORBCOMM FM38            
1 33060U 08031A   24172.61076368  .00001608  00000+0  25019-3 0  9991
2 33060  48.4411 234.0269 0006370 290.6133  69.4098 14.77822071861204
ORBCOMM FM41            
1 33061U 08031B   24172.62505837  .00001593  00000+0  24959-3 0  9996
2 33061  48.4438 240.6776 0005528 278.1421 234.2507 14.77549179860701
ORBCOMM FM29            
1 33062U 08031C   24172.46944258  .00001644  00000+0  25699-3 0  9992
2 33062  48.4394 249.4509 0007413 274.9845 181.7139 14.77492823860590
ORBCOMM FM39            
1 33063U 08031D   24172.58032987  .00001647  00000+0  26360-3 0  9992
2 33063  48.4420 269.7588 0008173 251.6932 108.3093 14.76456568860304
