<?xml version="1.0" encoding="UTF-8"?>
<ndm xmlns:xsi="http://www.w3.org/2001/XMLSchema-instance" xsi:noNamespaceSchemaLocation="https://sanaregistry.org/r/ndmxml_unqualified/ndmxml-2.0.0-master-2.0.xsd">
<omm id="CCSDS_OMM_VERS" version="2.0">
<header><CREATION_DATE/><ORIGINATOR/></header><body><segment><metadata><OBJECT_NAME>ORBCOMM FM33</OBJECT_NAME><OBJECT_ID>1999-065D</OBJECT_ID><CENTER_NAME>EARTH</CENTER_NAME><REF_FRAME>TEME</REF_FRAME><TIME_SYSTEM>UTC</TIME_SYSTEM><MEAN_ELEMENT_THEORY>SGP4</MEAN_ELEMENT_THEORY></metadata><data><meanElements><EPOCH>2024-06-20T12:43:31.344960</EPOCH><MEAN_MOTION>14.37858134</MEAN_MOTION><ECCENTRICITY>.0006694</ECCENTRICITY><INCLINATION>45.0297</INCLINATION><RA_OF_ASC_NODE>275.6625</RA_OF_ASC_NODE><ARG_OF_PERICENTER>37.3533</ARG_OF_PERICENTER><MEAN_ANOMALY>322.7780</MEAN_ANOMALY></meanElements><tleParameters><EPHEMERIS_TYPE>0</EPHEMERIS_TYPE><CLASSIFICATION_TYPE>U</CLASSIFICATION_TYPE><NORAD_CAT_ID>25983</NORAD_CAT_ID><ELEMENT_SET_NO>999</ELEMENT_SET_NO><REV_AT_EPOCH>28397</REV_AT_EPOCH><BSTAR>.39524E-3</BSTAR><MEAN_MOTION_DOT>.1061E-4</MEAN_MOTION_DOT><MEAN_MOTION_DDOT>0</MEAN_MOTION_DDOT></tleParameters></data></segment></body></omm>
<omm id="CCSDS_OMM_VERS" version="2.0">
<header><CREATION_DATE/><ORIGINATOR/></header><body><segment><metadata><OBJECT_NAME>ORBCOMM FM36</OBJECT_NAME><OBJECT_ID>1999-065E</OBJECT_ID><CENTER_NAME>EARTH</CENTER_NAME><REF_FRAME>TEME</REF_FRAME><TIME_SYSTEM>UTC</TIME_SYSTEM><MEAN_ELEMENT_THEORY>SGP4</MEAN_ELEMENT_THEORY></metadata><data><meanElements><EPOCH>2024-06-20T13:26:58.117632</EPOCH><MEAN_MOTION>14.35765143</MEAN_MOTION><ECCENTRICITY>.0003217</ECCENTRICITY><INCLINATION>45.0416</INCLINATION><RA_OF_ASC_NODE>1.7185</RA_OF_ASC_NODE><ARG_OF_PERICENTER>267.2826</ARG_OF_PERICENTER><MEAN_ANOMALY>92.7654</MEAN_ANOMALY></meanElements><tleParameters><EPHEMERIS_TYPE>0</EPHEMERIS_TYPE><CLASSIFICATION_TYPE>U</CLASSIFICATION_TYPE><NORAD_CAT_ID>25984</NORAD_CAT_ID><ELEMENT_SET_NO>999</ELEMENT_SET_NO><REV_AT_EPOCH>28240</REV_AT_EPOCH><BSTAR>.4927E-3</BSTAR><MEAN_MOTION_DOT>.1296E-4</MEAN_MOTION_DOT><MEAN_MOTION_DDOT>0</MEAN_MOTION_DDOT></tleParameters></data></segment></body></omm>
<omm id="CCSDS_OMM_VERS" version="2.0">
<header><CREATION_DATE/><ORIGINATOR/></header><body><segment><metadata><OBJECT_NAME>ORBCOMM FM35</OBJECT_NAME><OBJECT_ID>1999-065F</OBJECT_ID><CENTER_NAME>EARTH</CENTER_NAME><REF_FRAME>TEME</REF_FRAME><TIME_SYSTEM>UTC</TIME_SYSTEM><MEAN_ELEMENT_THEORY>SGP4</MEAN_ELEMENT_THEORY></metadata><data><meanElements><EPOCH>2024-06-20T06:24:37.785600</EPOCH><MEAN_MOTION>14.35294786</MEAN_MOTION><ECCENTRICITY>.0002812</ECCENTRICITY><INCLINATION>45.0417</INCLINATION><RA_OF_ASC_NODE>5.8911</RA_OF_ASC_NODE><ARG_OF_PERICENTER>33.0316</ARG_OF_PERICENTER><MEAN_ANOMALY>327.0707</MEAN_ANOMALY></meanElements><tleParameters><EPHEMERIS_TYPE>0</EPHEMERIS_TYPE><CLASSIFICATION_TYPE>U</CLASSIFICATION_TYPE><NORAD_CAT_ID>25985</NORAD_CAT_ID><ELEMENT_SET_NO>999</ELEMENT_SET_NO><REV_AT_EPOCH>28275</REV_AT_EPOCH><BSTAR>.36862E-3</BSTAR><MEAN_MOTION_DOT>.924E-5</MEAN_MOTION_DOT><MEAN_MOTION_DDOT>0</MEAN_MOTION_DDOT></tleParameters></data></segment></body></omm>
<omm id="CCSDS_OMM_VERS" version="2.0">
<header><CREATION_DATE/><ORIGINATOR/></header><body><segment><metadata><OBJECT_NAME>ORBCOMM FM34</OBJECT_NAME><OBJECT_ID>1999-065G</OBJECT_ID><CENTER_NAME>EARTH</CENTER_NAME><REF_FRAME>TEME</REF_FRAME><TIME_SYSTEM>UTC</TIME_SYSTEM><MEAN_ELEMENT_THEORY>SGP4</MEAN_ELEMENT_THEORY></metadata><data><meanElements><EPOCH>2024-06-20T12:24:13.187520</EPOCH><MEAN_MOTION>14.35268153</MEAN_MOTION><ECCENTRICITY>.0003049</ECCENTRICITY><INCLINATION>45.0412</INCLINATION><RA_OF_ASC_NODE>5.2560</RA_OF_ASC_NODE><ARG_OF_PERICENTER>327.1672</ARG_OF_PERICENTER><MEAN_ANOMALY>32.8985</MEAN_ANOMALY></meanElements><tleParameters><EPHEMERIS_TYPE>0</EPHEMERIS_TYPE><CLASSIFICATION_TYPE>U</CLASSIFICATION_TYPE><NORAD_CAT_ID>25986</NORAD_CAT_ID><ELEMENT_SET_NO>999</ELEMENT_SET_NO><REV_AT_EPOCH>28290</REV_AT_EPOCH><BSTAR>.39149E-3</BSTAR><MEAN_MOTION_DOT>.99E-5</MEAN_MOTION_DOT><MEAN_MOTION_DDOT>0</MEAN_MOTION_DDOT></tleParameters></data></segment></body></omm>
<omm id="CCSDS_OMM_VERS" version="2.0">
<header><CREATION_DATE/><ORIGINATOR/></header><body><segment><metadata><OBJECT_NAME>ORBCOMM FM38</OBJECT_NAME><OBJECT_ID>2008-031A</OBJECT_ID><CENTER_NAME>EARTH</CENTER_NAME><REF_FRAME>TEME</REF_FRAME><TIME_SYSTEM>UTC</TIME_SYSTEM><MEAN_ELEMENT_THEORY>SGP4</MEAN_ELEMENT_THEORY></metadata><data><meanElements><EPOCH>2024-06-20T14:39:29.981952</EPOCH><MEAN_MOTION>14.77822071</MEAN_MOTION><ECCENTRICITY>.000637</ECCENTRICITY><INCLINATION>48.4411</INCLINATION><RA_OF_ASC_NODE>234.0269</RA_OF_ASC_NODE><ARG_OF_PERICENTER>290.6133</ARG_OF_PERICENTER><MEAN_ANOMALY>69.4098</MEAN_ANOMALY></meanElements><tleParameters><EPHEMERIS_TYPE>0</EPHEMERIS_TYPE><CLASSIFICATION_TYPE>U</CLASSIFICATION_TYPE><NORAD_CAT_ID>33060</NORAD_CAT_ID><ELEMENT_SET_NO>999</ELEMENT_SET_NO><REV_AT_EPOCH>86120</REV_AT_EPOCH><BSTAR>.25019E-3</BSTAR><MEAN_MOTION_DOT>.1608E-4</MEAN_MOTION_DOT><MEAN_MOTION_DDOT>0</MEAN_MOTION_DDOT></tleParameters></data></segment></body></omm>
<omm id="CCSDS_OMM_VERS" version="2.0">
<header><CREATION_DATE/><ORIGINATOR/></header><body><segment><metadata><OBJECT_NAME>ORBCOMM FM41</OBJECT_NAME><OBJECT_ID>2008-031B</OBJECT_ID><CENTER_NAME>EARTH</CENTER_NAME><REF_FRAME>TEME</REF_FRAME><TIME_SYSTEM>UTC</TIME_SYSTEM><MEAN_ELEMENT_THEORY>SGP4</MEAN_ELEMENT_THEORY></metadata><data><meanElements><EPOCH>2024-06-20T15:00:05.043168</EPOCH><MEAN_MOTION>14.77549179</MEAN_MOTION><ECCENTRICITY>.0005528</ECCENTRICITY><INCLINATION>48.4438</INCLINATION><RA_OF_ASC_NODE>240.6776</RA_OF_ASC_NODE><ARG_OF_PERICENTER>278.1421</ARG_OF_PERICENTER><MEAN_ANOMALY>234.2507</MEAN_ANOMALY></meanElements><tleParameters><EPHEMERIS_TYPE>0</EPHEMERIS_TYPE><CLASSIFICATION_TYPE>U</CLASSIFICATION_TYPE><NORAD_CAT_ID>33061</NORAD_CAT_ID><ELEMENT_SET_NO>999</ELEMENT_SET_NO><REV_AT_EPOCH>86070</REV_AT_EPOCH><BSTAR>.24959E-3</BSTAR><MEAN_MOTION_DOT>.1593E-4</MEAN_MOTION_DOT><MEAN_MOTION_DDOT>0</MEAN_MOTION_DDOT></tleParameters></data></segment></body></omm>
<omm id="CCSDS_OMM_VERS" version="2.0">
<header><CREATION_DATE/><ORIGINATOR/></header><body><segment><metadata><OBJECT_NAME>ORBCOMM FM29</OBJECT_NAME><OBJECT_ID>2008-031C</OBJECT_ID><CENTER_NAME>EARTH</CENTER_NAME><REF_FRAME>TEME</REF_FRAME><TIME_SYSTEM>UTC</TIME_SYSTEM><MEAN_ELEMENT_THEORY>SGP4</MEAN_ELEMENT_THEORY></metadata><data><meanElements><EPOCH>2024-06-20T11:15:59.838912</EPOCH><MEAN_MOTION>14.77492823</MEAN_MOTION><ECCENTRICITY>.0007413</ECCENTRICITY><INCLINATION>48.4394</INCLINATION><RA_OF_ASC_NODE>249.4509</RA_OF_ASC_NODE><ARG_OF_PERICENTER>274.9845</ARG_OF_PERICENTER><MEAN_ANOMALY>181.7139</MEAN_ANOMALY></meanElements><tleParameters><EPHEMERIS_TYPE>0</EPHEMERIS_TYPE><CLASSIFICATION_TYPE>U</CLASSIFICATION_TYPE><NORAD_CAT_ID>33062</NORAD_CAT_ID><ELEMENT_SET_NO>999</ELEMENT_SET_NO><REV_AT_EPOCH>86059</REV_AT_EPOCH><BSTAR>.25699E-3</BSTAR><MEAN_MOTION_DOT>.1644E-4</MEAN_MOTION_DOT><MEAN_MOTION_DDOT>0</MEAN_MOTION_DDOT></tleParameters></data></segment></body></omm>
<omm id="CCSDS_OMM_VERS" version="2.0">
<header><CREATION_DATE/><ORIGINATOR/></header><body><segment><metadata><OBJECT_NAME>ORBCOMM FM39</OBJECT_NAME><OBJECT_ID>2008-031D</OBJECT_ID><CENTER_NAME>EARTH</CENTER_NAME><REF_FRAME>TEME</REF_FRAME><TIME_SYSTEM>UTC</TIME_SYSTEM><MEAN_ELEMENT_THEORY>SGP4</MEAN_ELEMENT_THEORY></metadata><data><meanElements><EPOCH>2024-06-20T13:55:40.500768</EPOCH><MEAN_MOTION>14.76456568</MEAN_MOTION><ECCENTRICITY>.0008173</ECCENTRICITY><INCLINATION>48.4420</INCLINATION><RA_OF_ASC_NODE>269.7588</RA_OF_ASC_NODE><ARG_OF_PERICENTER>251.6932</ARG_OF_PERICENTER><MEAN_ANOMALY>108.3093</MEAN_ANOMALY></meanElements><tleParameters><EPHEMERIS_TYPE>0</EPHEMERIS_TYPE><CLASSIFICATION_TYPE>U</CLASSIFICATION_TYPE><NORAD_CAT_ID>33063</NORAD_CAT_ID><ELEMENT_SET_NO>999</ELEMENT_SET_NO><REV_AT_EPOCH>86030</REV_AT_EPOCH><BSTAR>.2636E-3</BSTAR><MEAN_MOTION_DOT>.1647E-4</MEAN_MOTION_DOT><MEAN_MOTION_DDOT>0</MEAN_MOTION_DDOT></tleParameters></data></segment></body></omm>

</ndm>
